ONEWEB-0555             
1 56057U 23043M   25135.43917795 -.00000048  00000+0 -15870-3 0  9993
2 56057  87.9016 308.0530 0002345  88.4303 271.7097 13.16593398106621
ONEWEB-0557             
1 56058U 23043N   25135.37743506  .00000067  00000+0  14221-3 0  9992
2 56058  87.9011 308.0889 0002502  75.3469 284.7939 13.16593527106619
ONEWEB-0558             
1 56059U 23043P   25135.27954084  .00000001  00000+0 -28739-4 0  9996
2 56059  87.9246 323.3429 0001554 104.4679 255.6627 13.21826751105673
ONEWEB-0559             
1 56060U 23043Q   25135.49558054 -.00000020  00000+0 -80349-4 0  9996
2 56060  87.9246 323.2925 0001380  90.6227 269.5065 13.21822706105718
ONEWEB-0566             
1 56061U 23043R   25136.01915768  .00000036  00000+0  56841-4 0  9990
2 56061  87.9244 323.1873 0001368 105.2942 254.8343 13.21826530106672
ONEWEB-0568             
1 56062U 23043S   25135.01486463  .00000018  00000+0  14068-4 0  9990
2 56062  87.9022 308.1275 0002075  91.7552 268.3817 13.16592976106582
ONEWEB-0574             
1 56063U 23043T   25135.25588448  .00000067  00000+0  13046-3 0  9991
2 56063  87.9242 323.3283 0001816  81.6217 278.5123 13.21823899105706
ONEWEB-0575             
1 56064U 23043U   25135.00853213  .00000076  00000+0  16430-3 0  9990
2 56064  87.9017 308.1413 0001991  79.8346 280.3009 13.16592793106579
ONEWEB-0576             
1 56065U 23043V   25134.98952784  .00000032  00000+0  48853-4 0  9997
2 56065  87.9016 308.1355 0001994  89.4235 270.7124 13.16593923106567
ONEWEB-0577             
1 56066U 23043W   25136.21181809  .00000006  00000+0 -17526-4 0  9993
2 56066  87.9015 307.8914 0002015  72.5046 287.6305 13.16593298107667
ONEWEB-0578             
1 56067U 23043X   25135.47034952  .00000059  00000+0  11199-3 0  9993
2 56067  87.9246 323.2951 0001923  88.3870 271.7484 13.21827343105694
ONEWEB-0579             
1 56068U 23043Y   25135.53657461  .00000097  00000+0  20384-3 0  9995
2 56068  87.9242 323.2686 0001486  91.2733 268.8571 13.21827990105716
ONEWEB-0581             
1 56069U 23043Z   25135.45817974  .00000051  00000+0  10108-3 0  9997
2 56069  87.9012 308.0726 0001677  76.7137 283.4181 13.16592962106629
ONEWEB-0609             
1 56070U 23043AA  25136.08844838  .00000193  00000+0  47801-3 0  9995
2 56070  87.9053 338.3670 0001739  90.0230 270.1099 13.15548891105139
ONEWEB-0613             
1 56071U 23043AB  25136.08369226  .00000249  00000+0  62620-3 0  9997
2 56071  87.9057 338.3774 0001516  87.8971 272.2333 13.15548133105131
ONEWEB-0630             
1 56072U 23043AC  25135.54654269  .00000168  00000+0  41091-3 0  9991
2 56072  87.9054 338.4632 0001502  94.5028 265.6274 13.15549318104142
ONEWEB-0632             
1 56073U 23043AD  25135.54178886  .00000120  00000+0  28433-3 0  9991
2 56073  87.9054 338.4837 0001654  80.4075 279.7242 13.15549492104148
ONEWEB-0633             
1 56074U 23043AE  25136.06784654  .00000020  00000+0  18406-4 0  9995
2 56074  87.9048 338.3480 0001494 101.1011 259.0288 13.15549561105103
ONEWEB-0634             
1 56075U 23043AF  25135.82541888 -.00000047  00000+0 -15829-3 0  9995
2 56075  87.9057 338.4293 0001966  97.2465 262.8889 13.15548157105063
ONEWEB-0635             
1 56076U 23043AG  25135.51642540 -.00000149  00000+0 -43093-3 0  9996
2 56076  87.9028 338.4854 0001741  77.4577 282.6748 13.15549772105057
ONEWEB-0636             
1 56077U 23043AH  25136.11696861 -.00000053  00000+0 -17440-3 0  9990
2 56077  87.9025 338.3743 0001648  81.5283 278.6034 13.15548005105115
ONEWEB-0637             
1 56078U 23043AJ  25136.11063458 -.00000016  00000+0 -75902-4 0  9998
2 56078  87.9062 338.3706 0002048  80.1108 280.0254 13.15549875105131
ONEWEB-0647             
1 56079U 23043AK  25135.34530874 -.00000053  00000+0 -17548-3 0  9996
2 56079  87.9054 338.5340 0001605  82.7917 277.3395 13.15547664104119
ONEWEB-0651             
1 56080U 23043AL  25135.34055666  .00000000  00000+0 -34978-4 0  9997
2 56080  87.9058 338.5219 0001910  78.0626 282.0718 13.15548265105317
ONEWEB-0718             
1 56081U 23043AM  25136.09637420  .00000045  00000+0  84562-4 0  9997
2 56081  87.9058 338.3552 0002122  97.6549 262.4822 13.15549721105139
ONEWEB-0561             
1 56710U 23068A   25135.62613829  .00000091  00000+0  19115-3 0  9990
2 56710  87.9263 353.6371 0001656  67.2270 292.9038 13.20772492 97721
ONEWEB-0668             
1 56711U 23068B   25135.46056619  .00000103  00000+0  23470-3 0  9994
2 56711  87.9024 308.0290 0002297  99.0518 261.0873 13.16594027 99447
ONEWEB-0676             
1 56712U 23068C   25134.98477698  .00000033  00000+0  51957-4 0  9999
2 56712  87.9016 308.1531 0001588  77.3055 282.8253 13.16594397 99303
ONEWEB-0677             
1 56713U 23068D   25136.06958418  .00001860  00000+0  45392-2 0  9998
2 56713  87.9277 353.5247 0002508  85.2708 274.8711 13.20797905 98086
ONEWEB-0678             
1 56714U 23068E   25135.30410543  .00000064  00000+0  13701-3 0  9992
2 56714  87.9057 338.4831 0001408  88.1576 271.9715 13.15549129 96972
ONEWEB-0679             
1 56715U 23068F   25135.48588811  .00000078  00000+0  17025-3 0  9994
2 56715  87.9015 308.0464 0002225  83.6263 276.5121 13.16592817 99397
ONEWEB-0680             
1 56716U 23068G   25135.31265164  .00000017  00000+0  98564-5 0  9992
2 56716  87.9223 323.3267 0002502  93.8954 266.2466 13.21827843 98537
ONEWEB-0681             
1 56717U 23068H   25135.32290890  .00000023  00000+0  24782-4 0  9995
2 56717  87.9244 323.3436 0002040  61.7883 298.3457 13.21826720 98529
ONEWEB-0682             
1 56718U 23068J   25136.09082502  .00000165  00000+0  40460-3 0  9997
2 56718  87.9054 338.3583 0002310  86.7112 273.4283 13.15549277 97948
ONEWEB-0683             
1 56719U 23068K   25135.88403500  .00000011  00000+0 -35842-5 0  9990
2 56719  87.9055 338.3708 0002106  90.2628 269.8743 13.15547937 97888
ONEWEB-0684             
1 56720U 23068L   25136.12013513 -.00000042  00000+0 -14554-3 0  9991
2 56720  87.9028 338.3500 0001202 142.4746 217.6468 13.15548552 97741
ONEWEB-0686             
1 56721U 23068M   25136.00757648  .00000091  00000+0  20351-3 0  9997
2 56721  87.9012 307.9787 0001928 100.5542 259.5806 13.16592604100157
ONEWEB-0694             
1 56722U 23068N   25134.98636172  .00000034  00000+0  54501-4 0  9993
2 56722  87.9009 308.1000 0002220  93.9432 266.1953 13.16594052 99371
ONEWEB-0696             
1 56723U 23068P   25136.07735781  .00000099  00000+0  22890-3 0  9998
2 56723  87.9051 338.3849 0001479  89.2648 270.8652 13.15548135 97856
ONEWEB-0703             
1 56724U 23068Q   25136.08684913  .00000144  00000+0  34843-3 0  9992
2 56724  87.9036 338.3858 0000867  54.7444 305.3768 13.15549595 97742
ONEWEB-0721             
1 56725U 23068R   25135.54593970  .00000061  00000+0  11152-3 0  9991
2 56725  86.6837 212.2215 0002008 101.0902 259.0457 13.22435991105381
ONEWEB-0015             
1 61594U 24188A   25136.18478379  .00000397  00000+0  10847-2 0  9992
2 61594  87.8845 100.2146 0002411  70.2564 289.8824 13.11417224 30508
ONEWEB-0687             
1 61595U 24188B   25134.31771637 -.00265426  00000+0 -24224+0 0  9998
2 61595  87.3973  86.3997 0004002 241.5748 118.5018 13.85192340 33246
ONEWEB-0688             
1 61596U 24188C   25136.02076704 -.00352992  00000+0 -36397+0 0  9991
2 61596  87.4140  85.8495 0005999 272.4433  87.6045 13.78237320 31548
ONEWEB-0689             
1 61597U 24188D   25135.91349918 -.00000237  00000+0 -70381-3 0  9996
2 61597  87.8780 100.2831 0002402  88.0346 272.1057 13.11419101 30515
ONEWEB-0690             
1 61598U 24188E   25135.92369031 -.00000516  00000+0 -14923-2 0  9995
2 61598  87.8832 100.2073 0001276  75.4413 284.6856 13.11419521 30673
ONEWEB-0691             
1 61599U 24188F   25135.30823169 -.00000453  00000+0 -13137-2 0  9991
2 61599  87.8729 100.3937 0002241  75.3167 284.8209 13.11421720 32330
ONEWEB-0692             
1 61600U 24188G   25135.86265967 -.00000273  00000+0 -80631-3 0  9995
2 61600  87.8811 100.3070 0002320 109.7638 250.3741 13.11425496 30618
ONEWEB-0693             
1 61601U 24188H   25134.27277528 -.00102474  00000+0 -91805-1 0  9995
2 61601  87.4086  86.4769 0001756 290.8405  69.2577 13.85074731 33221
ONEWEB-0695             
1 61602U 24188J   25136.22039913 -.00000171  00000+0 -51960-3 0  9998
2 61602  87.8818 100.2169 0002466  96.8189 263.3220 13.11418424 30689
ONEWEB-0697             
1 61603U 24188K   25136.40518752  .00000062  00000+0  13991-3 0  9991
2 61603  87.8797 100.1880 0002152 107.3498 252.7865 13.11416923 30722
ONEWEB-0698             
1 61604U 24188L   25135.92535694 -.00000541  00000+0 -15633-2 0  9990
2 61604  87.8808 100.2884 0001384 116.4091 243.7179 13.11413875 30447
ONEWEB-0699             
1 61605U 24188M   25136.38560904  .00000694  00000+0  19512-2 0  9991
2 61605  87.8795 115.3701 0001679  94.9863 265.1456 13.10373989 29479
ONEWEB-0700             
1 61606U 24188N   25136.38726747  .00000729  00000+0  20510-2 0  9990
2 61606  87.8708 115.3119 0002538  97.9669 262.1746 13.10374415 29529
ONEWEB-0701             
1 61607U 24188P   25135.71666612  .00003562  00000+0  10166-1 0  9994
2 61607  87.8791 115.5106 0002059 111.8348 248.2999 13.10359312 29588
ONEWEB-0702             
1 61608U 24188Q   25135.89490703  .00000474  00000+0  13020-2 0  9992
2 61608  87.8739 100.2989 0002465 106.0843 254.0556 13.11418018 30494
ONEWEB-0704             
1 61609U 24188R   25136.46860503  .00000731  00000+0  20567-2 0  9996
2 61609  87.8824 115.2814 0002630 106.8845 253.2571 13.10372634 29484
ONEWEB-0705             
1 61610U 24188S   25136.39722827  .00000640  00000+0  17965-2 0  9993
2 61610  87.8781 115.3663 0003150  92.9688 267.1800 13.10370923 29634
ONEWEB-0706             
1 61611U 24188T   25135.76561595  .00000451  00000+0  12546-2 0  9997
2 61611  87.8813 115.5010 0002328  94.2197 265.9196 13.10374963 29446
